EUTELSAT 8 WEST B       
1 40875U 15039B   25362.03947300 -.00000043  00000+0  00000+0 0  9992
2 40875   0.0660  15.2901 0004190 261.8373 185.8406  1.00271478 37945
EUTELSAT 9B             
1 41310U 16005A   25362.04285301  .00000084  00000+0  00000+0 0  9992
2 41310   0.0317  53.7708 0004805 222.4109 204.9951  1.00270235 36402
EUTELSAT 65 WEST A      
1 41382U 16014A   25362.02811958 -.00000254  00000+0  00000+0 0  9992
2 41382   0.0466 352.4867 0002470 287.8121 121.3895  1.00270355 35812
EUTELSAT 117 WEST B     
1 41589U 16038B   25362.06017161  .00000011  00000+0  00000+0 0  9995
2 41589   0.0023 188.3936 0000181 228.1991 304.8477  1.00271902 34949
EUTELSAT 172B           
1 42741U 17029B   25362.07500655  .00000017  00000+0  00000+0 0  9999
2 42741   0.0391 163.9091 0000207  40.8714  91.0118  1.00269907 32015
EUTELSAT 7C             
1 44334U 19034B   25362.11374677  .00000071  00000+0  00000+0 0  9995
2 44334   0.0730 179.3598 0003350  81.5291 243.8662  1.00270354  5120
EUTELSAT 5 WEST B       
1 44624U 19067A   25362.04007965 -.00000020  00000+0  00000+0 0  9993
2 44624   0.0524 352.7856 0003071 277.9097 195.4955  1.00271530 22721
EUTELSAT KONNECT        
1 45027U 20005B   25362.11383345  .00000072  00000+0  00000+0 0  9998
2 45027   0.0684  94.0233 0001596 181.5776 229.4120  1.00269130 22629
